[{"OBJECT_NAME":"SDA_1680","OBJECT_ID":"2025-230S","EPOCH":"2026-03-09T23:22:27.829344","MEAN_MOTION":13.85216593,"ECCENTRICITY":0.00048476,"INCLINATION":81.3005,"RA_OF_ASC_NODE":303.6494,"ARG_OF_PERICENTER":103.2201,"MEAN_ANOMALY":256.9497,"EPHEMERIS_TYPE":0,"CLASSIFICATION_TYPE":"U","NORAD_CAT_ID":65990,"ELEMENT_SET_NO":999,"REV_AT_EPOCH":2008,"BSTAR":0.00016774776,"MEAN_MOTION_DOT":2.02e-6,"MEAN_MOTION_DDOT":0},{"OBJECT_NAME":"NIMBUS 2 DEB","OBJECT_ID":"1966-040S","EPOCH":"2026-03-08T17:32:13.954848","MEAN_MOTION":13.76697979,"ECCENTRICITY":0.00342677,"INCLINATION":100.1873,"RA_OF_ASC_NODE":347.8731,"ARG_OF_PERICENTER":273.5594,"MEAN_ANOMALY":116.434,"EPHEMERIS_TYPE":0,"CLASSIFICATION_TYPE":"U","NORAD_CAT_ID":28204,"ELEMENT_SET_NO":999,"REV_AT_EPOCH":61684,"BSTAR":0.0061928091,"MEAN_MOTION_DOT":6.063e-5,"MEAN_MOTION_DDOT":0}]
